[{"OBJECT_NAME":"TEVEL2-6","OBJECT_ID":"2025-052F","EPOCH":"2026-03-09T15:35:24.554400","MEAN_MOTION":15.30760889,"ECCENTRICITY":0.0004769,"INCLINATION":97.4016,"RA_OF_ASC_NODE":325.0381,"ARG_OF_PERICENTER":95.6604,"MEAN_ANOMALY":264.5181,"EPHEMERIS_TYPE":0,"CLASSIFICATION_TYPE":"U","NORAD_CAT_ID":63215,"ELEMENT_SET_NO":999,"REV_AT_EPOCH":5486,"BSTAR":0.00070909,"MEAN_MOTION_DOT":0.00021046,"MEAN_MOTION_DDOT":0},{"OBJECT_NAME":"STARLINK-34852","OBJECT_ID":"2025-237X","EPOCH":"2026-03-09T22:02:16.348128","MEAN_MOTION":15.30224487,"ECCENTRICITY":0.00016283,"INCLINATION":53.1615,"RA_OF_ASC_NODE":38.6972,"ARG_OF_PERICENTER":92.2015,"MEAN_ANOMALY":267.9172,"EPHEMERIS_TYPE":0,"CLASSIFICATION_TYPE":"U","NORAD_CAT_ID":66135,"ELEMENT_SET_NO":999,"REV_AT_EPOCH":2260,"BSTAR":0.0012758117,"MEAN_MOTION_DOT":0.00037647,"MEAN_MOTION_DDOT":0}]
